[Satellite]
VERSION=1.1
NAME=CZ-6A DEB
NICKNAME=CZ-6A DEB
TLE1=1 54478U 22151HE  22341.96602969  .00126391  00000+0  30301-2 0  9998
TLE2=2 54478  98.7149 349.6587 0341446 179.6641 180.4874 14.98034703  3617
STATUS=0
